LEMUR-2-ANDIS           
1 42838U 17042P   26068.55941107  .00023598  00000+0  79875-3 0  9998
2 42838  97.3659 249.7950 0009101   4.3248 355.8070 15.30557934473198
STARLINK-33702          
1 63591U 25076Y   26068.03869102  .00045868  00000+0  16650-2 0  9995
2 63591  43.0039 325.1251 0001687 264.3983  95.6676 15.27600182 51738
